[{"OBJECT_NAME":"STARLINK-5156","OBJECT_ID":"2022-125K","EPOCH":"2026-03-09T16:31:23.827872","MEAN_MOTION":15.08832105,"ECCENTRICITY":0.00011216,"INCLINATION":53.2165,"RA_OF_ASC_NODE":224.0063,"ARG_OF_PERICENTER":83.5147,"MEAN_ANOMALY":276.5973,"EPHEMERIS_TYPE":0,"CLASSIFICATION_TYPE":"U","NORAD_CAT_ID":53973,"ELEMENT_SET_NO":999,"REV_AT_EPOCH":18932,"BSTAR":-4.951389e-6,"MEAN_MOTION_DOT":-3.67e-6,"MEAN_MOTION_DDOT":0},{"OBJECT_NAME":"OBJECT F","OBJECT_ID":"2025-292F","EPOCH":"2026-03-09T22:41:00.950496","MEAN_MOTION":15.06065121,"ECCENTRICITY":0.00151037,"INCLINATION":97.6416,"RA_OF_ASC_NODE":145.7425,"ARG_OF_PERICENTER":346.7214,"MEAN_ANOMALY":13.3613,"EPHEMERIS_TYPE":0,"CLASSIFICATION_TYPE":"U","NORAD_CAT_ID":66998,"ELEMENT_SET_NO":999,"REV_AT_EPOCH":1351,"BSTAR":0.00047210602,"MEAN_MOTION_DOT":6.85e-5,"MEAN_MOTION_DDOT":0}]
